STARLINK-2449           
1 48112U 21027W   24060.91466874  .00000825  00000+0  74270-4 0  9993
2 48112  53.0535 253.2742 0001264  88.2563 271.8571 15.06386198160992
STARLINK-2450           
1 48113U 21027X   24060.78425398  .00004859  00000+0  34499-3 0  9994
2 48113  53.0529 248.6923 0001589  83.4077 276.7093 15.06388889161030
STARLINK-2452           
1 48115U 21027Z   24060.77412310 -.00000485  00000+0 -13677-4 0  9994
2 48115  53.0531 238.7516 0001301  89.2599 270.8539 15.06381475161188
STARLINK-2454           
1 48116U 21027AA  24060.78056665  .00000203  00000+0  32516-4 0  9992
2 48116  53.0531 248.7135 0001244  89.6446 270.4685 15.06386890161047
STARLINK-2455           
1 48117U 21027AB  24060.88468109  .00000425  00000+0  47480-4 0  9996
2 48117  53.0537 228.2342 0001413  92.2299 267.8851 15.06380101161348
STARLINK-2458           
1 48118U 21027AC  24060.89668078 -.00000616  00000+0 -22476-4 0  9997
2 48118  53.0547 228.1882 0001413  95.0576 265.0575 15.06385172161343
STARLINK-2459           
1 48119U 21027AD  24060.89203312  .00001129  00000+0  94710-4 0  9992
2 48119  53.0538 228.1983 0001356  86.7110 273.4034 15.06398066161331
STARLINK-2460           
1 48120U 21027AE  24060.89851865  .00001156  00000+0  96535-4 0  9993
2 48120  53.0543 248.1791 0001128  90.0862 270.0256 15.06385015161077
STARLINK-2462           
1 48121U 21027AF  24060.86995247  .00000660  00000+0  63191-4 0  9995
2 48121  53.0550 238.3095 0001350  94.3517 265.7627 15.06384866160801
STARLINK-2463           
1 48122U 21027AG  24060.86855664  .00001883  00000+0  14527-3 0  9990
2 48122  53.0535 233.2832 0001209  96.9986 263.1140 15.06395696161276
STARLINK-2464           
1 48123U 21027AH  24061.47537063  .00000331  00000+0  41132-4 0  9999
2 48123  53.0542 225.5897 0001480  94.1614 265.9544 15.06387922161023
STARLINK-2465           
1 48124U 21027AJ  24061.47445564  .00000139  00000+0  28210-4 0  9992
2 48124  53.0541 235.5963 0001224  89.5033 270.6096 15.06383558160897
STARLINK-2466           
1 48125U 21027AK  24061.48830571 -.00000758  00000+0 -32039-4 0  9993
2 48125  53.0552 245.7730 0001478  92.8802 267.2356 15.06384820160756
STARLINK-2467           
1 48126U 21027AL  24060.77873361 -.00000792  00000+0 -34327-4 0  9999
2 48126  53.0538 228.7166 0001261  88.5856 271.5277 15.06389586161335
STARLINK-2468           
1 48127U 21027AM  24061.49931538  .00001774  00000+0  13798-3 0  9998
2 48127  53.0538 245.4848 0001287  95.3700 264.7435 15.06398105160753
STARLINK-2469           
1 48128U 21027AN  24061.47998547  .00010051  00000+0  69251-3 0  9993
2 48128  53.0548 175.6546 0001685  80.4390 279.6789 15.06410948161732
STARLINK-2471           
1 48129U 21027AP  24061.49195212  .00001260  00000+0  10351-3 0  9993
2 48129  53.0538 245.5139 0001076  90.2916 269.8197 15.06392986160750
STARLINK-2472           
1 48130U 21027AQ  24060.81786673 -.00000311  00000+0 -19947-5 0  9997
2 48130  53.0528 253.5419 0001329  91.3641 268.7500 15.06383110160989
STARLINK-2473           
1 48131U 21027AR  24060.83770594 -.00000025  00000+0  17187-4 0  9999
2 48131  53.0545 228.4516 0001275  96.8473 263.2661 15.06379344161333
STARLINK-2474           
1 48132U 21027AS  24060.88377439  .00000119  00000+0  26901-4 0  9993
2 48132  53.0547 248.2464 0001348  89.5244 270.5899 15.06387188161052
STARLINK-2475           
1 48133U 21027AT  24060.81373248  .00001279  00000+0  10477-3 0  9999
2 48133  53.0544 248.5594 0001357  88.6951 271.4193 15.06394746161057
STARLINK-2476           
1 48134U 21027AU  24060.73265204  .00000487  00000+0  51603-4 0  9990
2 48134  53.0530 248.9236 0001366  91.0820 269.0325 15.06389652161031
STARLINK-2478           
1 48135U 21027AV  24060.80039273  .00000952  00000+0  82789-4 0  9990
2 48135  53.0529 253.7873 0001376  91.8803 268.2344 15.06393005160972
STARLINK-2479           
1 48136U 21027AW  24060.80643001  .00000146  00000+0  28687-4 0  9993
2 48136  53.0547 249.0926 0001293  94.5692 265.5445 15.06385951161046
STARLINK-2480           
1 48137U 21027AX  24060.91511092  .00001619  00000+0  12755-3 0  9994
2 48137  53.0525 228.0728 0001375 115.4211 244.6920 15.06396384161342
STARLINK-2481           
1 48138U 21027AY  24060.81004819  .00000575  00000+0  57505-4 0  9991
2 48138  53.0522 248.5795 0001393  92.8007 267.3142 15.06390142161054
STARLINK-2482           
1 48139U 21027AZ  24061.46431302  .00002692  00000+0  19958-3 0  9996
2 48139  53.0538 225.6396 0001331  92.4563 267.6578 15.06395683161039
STARLINK-2483           
1 48140U 21027BA  24060.75482040 -.00000905  00000+0 -41845-4 0  9992
2 48140  53.0554 249.3773 0001390  95.2604 264.8543 15.06399082161031
STARLINK-2484           
1 48141U 21027BB  24060.92432111  .00001198  00000+0  99328-4 0  9998
2 48141  53.0536 248.0648 0001282  91.9537 268.1599 15.06391853161088
STARLINK-2485           
1 48142U 21027BC  24060.86348765  .00002371  00000+0  17799-3 0  9998
2 48142  53.0528 228.3352 0001277  84.9315 275.1820 15.06397721161347
STARLINK-2486           
1 48143U 21027BD  24061.51821134  .00007388  00000+0  51419-3 0  9998
2 48143  53.0528 180.4966 0001298  87.4276 272.6861 15.06411665161660
STARLINK-2487           
1 48144U 21027BE  24060.87087404  .00000578  00000+0  57744-4 0  9993
2 48144  53.0532 228.3057 0001384  91.3901 268.7246 15.06386790161331
STARLINK-2488           
1 48145U 21027BF  24061.47169317 -.00000510  00000+0 -15394-4 0  9998
2 48145  53.0534 225.6075 0001142  93.3415 266.7704 15.06383938161033
STARLINK-2489           
1 48146U 21027BG  24060.90717989  .00001965  00000+0  14457-3 0  9991
2 48146  53.0534 247.8116 0001422  89.0454 271.0699 15.08029240160689
STARLINK-2490           
1 48147U 21027BH  24060.80407064  .00001971  00000+0  15118-3 0  9993
2 48147  53.0537 253.6054 0001560  98.2783 261.8383 15.06391966160984
STARLINK-2491           
1 48148U 21027BJ  24060.90589132  .00000915  00000+0  80309-4 0  9994
2 48148  53.0525 248.1497 0001250  91.7129 268.4003 15.06387601161052
STARLINK-2492           
1 48149U 21027BK  24060.71975269  .00001011  00000+0  86815-4 0  9990
2 48149  53.0540 228.9830 0001483  89.8676 270.2483 15.06384541161312
STARLINK-2493           
1 48150U 21027BL  24060.72343664  .00000602  00000+0  59336-4 0  9994
2 48150  53.0529 228.9663 0001288  87.8834 272.2302 15.06383780161329
STARLINK-2503           
1 48151U 21027BM  24060.72710788  .00003409  00000+0  24761-3 0  9991
2 48151  53.0543 228.9513 0001611  91.8289 268.2885 15.06401150161322
STARLINK-2567           
1 48276U 21036A   24061.43158514  .00008146  00000+0  56484-3 0  9991
2 48276  53.0523 120.7857 0001453  88.6330 271.4825 15.06417214158114
STARLINK-2569           
1 48277U 21036B   24061.36661375  .00001299  00000+0  10607-3 0  9997
2 48277  53.0544  86.0772 0001486  91.0264 269.0896 15.06406134158590
STARLINK-2543           
1 48278U 21036C   24061.47029736  .00003045  00000+0  22319-3 0  9993
2 48278  53.0535 100.6946 0001481  95.5342 264.5816 15.06407869158394
STARLINK-2580           
1 48279U 21036D   24061.13118071 -.00000930  00000+0 -43526-4 0  9994
2 48279  53.0534 102.1337 0001252  90.6168 269.4964 15.06395771158344
STARLINK-2565           
1 48280U 21036E   24060.72666670  .00000140  00000+0  28313-4 0  9991
2 48280  53.0532 173.9480 0001410  83.3386 276.7763 15.06375938156727
STARLINK-2520           
1 48281U 21036F   24060.54051714 -.00000120  00000+0  10827-4 0  9999
2 48281  53.0535 154.7865 0001632  89.1912 270.9264 15.06378956156972
STARLINK-2558           
1 48282U 21036G   24061.49285912  .00015093  00000+0  10293-2 0  9993
2 48282  53.0530 155.5155 0001304  93.1777 266.9361 15.06423420157633
STARLINK-2516           
1 48283U 21036H   24061.48919557  .00009625  00000+0  66428-3 0  9998
2 48283  53.0528 155.5276 0001320 100.1515 259.9622 15.06394117157634
STARLINK-2564           
1 48284U 21036J   24060.55665244  .00000330  00000+0  41104-4 0  9996
2 48284  53.0536 159.7209 0001562  84.3696 275.7471 15.06379759157483
STARLINK-2548           
1 48285U 21036K   24061.48085336  .00005593  00000+0  39392-3 0  9999
2 48285  53.0544 155.5570 0001473  93.2970 266.8188 15.06412597157623
STARLINK-2547           
1 48286U 21036L   24061.49928817  .00012318  00000+0  88154-3 0  9994
2 48286  53.0520 155.7006 0001262  91.5343 268.5790 15.04787029157626
STARLINK-2566           
1 48287U 21036M   24060.67828248  .00007890  00000+0  54821-3 0  9994
2 48287  53.0517 159.1701 0001344  90.4977 269.6166 15.06385924156926
STARLINK-2562           
1 48288U 21036N   24060.54928546 -.00002396  00000+0 -14206-3 0  9994
2 48288  53.0525 159.8266 0001105  97.2361 262.8754 15.06387020156901
STARLINK-2545           
1 48289U 21036P   24060.53821014  .00007879  00000+0  54724-3 0  9994
2 48289  53.0523 159.7930 0001789 101.6454 258.4735 15.06402315156903
STARLINK-2540           
1 48290U 21036Q   24060.53452135  .00005600  00000+0  39458-3 0  9997
2 48290  53.0517 159.8120 0001671 100.4337 259.6840 15.06395486156907
STARLINK-2555           
1 48291U 21036R   24060.53083672  .00002840  00000+0  20951-3 0  9995
2 48291  53.0513 159.8270 0001402 121.5280 238.5846 15.06394675157488
STARLINK-2542           
1 48292U 21036S   24060.54191511  .00004672  00000+0  33237-3 0  9995
2 48292  53.0529 159.9435 0001436  91.4160 268.6993 15.06397836157488
STARLINK-2550           
1 48293U 21036T   24060.65617178  .00007390  00000+0  51474-3 0  9993
2 48293  53.0534 159.2657 0001677  68.7780 291.3388 15.06383424156923
STARLINK-2533           
1 48294U 21036U   24061.51499941  .00007096  00000+0  49485-3 0  9998
2 48294  53.0525 155.4105 0001134  76.8415 283.2700 15.06394447157637
STARLINK-2535           
1 48295U 21036V   24061.51129191  .00013798  00000+0  94273-3 0  9997
2 48295  53.0534 155.4292 0001498  82.4183 277.6976 15.06426063157635
